OBJECT_NAME,OBJECT_ID,EPOCH,MEAN_MOTION,ECCENTRICITY,INCLINATION,RA_OF_ASC_NODE,ARG_OF_PERICENTER,MEAN_ANOMALY,EPHEMERIS_TYPE,CLASSIFICATION_TYPE,NORAD_CAT_ID,ELEMENT_SET_NO,REV_AT_EPOCH,BSTAR,MEAN_MOTION_DOT,MEAN_MOTION_DDOT
STARLINK-37000,2026-041Z,2026-07-14T08:41:04.382592,15.34373779,.00010218,53.1565,178.5731,79.1776,280.9341,0,U,68063,999,2082,.96752125E-4,.2891E-4,0
STARLINK-36996,2026-041AA,2026-07-14T10:23:50.267616,15.34391575,.00011748,53.1564,177.5901,98.7402,261.3734,0,U,68064,999,2084,.28414688E-3,.9233E-4,0
STARLINK-36836,2026-041AB,2026-07-14T09:30:14.090688,15.34394836,.00009691,53.1553,180.1895,96.4398,263.6715,0,U,68065,999,2080,.38970954E-3,.12811E-3,0
STARLINK-36976,2026-041AC,2026-07-14T10:35:57.416928,15.34392649,.00011023,53.1569,177.6422,103.2154,256.8971,0,U,68066,999,2084,.3544169E-3,.11614E-3,0
STARLINK-36929,2026-041AD,2026-07-14T11:27:28.158336,15.34408021,.00008848,53.1565,177.8764,75.8548,284.2553,0,U,68067,999,2084,.27613307E-3,.8967E-4,0
STARLINK-36990,2026-041AE,2026-07-14T10:09:29.664000,15.34395667,.00007233,53.1563,179.6510,93.8378,266.2707,0,U,68068,999,2081,.31408434E-3,.10249E-3,0
STARLINK-36766,2026-042A,2026-07-14T14:43:15.187008,15.34390357,.00008412,53.1594,307.3483,81.9615,278.1483,0,U,68069,999,2176,.29656321E-3,.9654E-4,0
STARLINK-36823,2026-042B,2026-07-14T14:03:02.935296,15.34385991,.00010274,53.1587,304.9914,70.6783,289.4330,0,U,68070,999,2179,.45840144E-4,.1172E-4,0
STARLINK-36970,2026-042C,2026-07-14T14:25:04.215072,15.34395666,.00008844,53.1597,307.2702,84.1815,275.9288,0,U,68071,999,2176,.21301954E-3,.6827E-4,0
STARLINK-36972,2026-042D,2026-07-14T15:10:23.316384,15.34392135,.00007713,53.1603,306.7397,96.9297,263.1793,0,U,68072,999,2177,.28033728E-3,.9105E-4,0
STARLINK-37074,2026-042E,2026-07-14T13:51:44.576064,15.34406458,.00008181,53.1605,307.1126,95.7416,264.3680,0,U,68073,999,2176,.50498455E-3,.16727E-3,0
STARLINK-37045,2026-042F,2026-07-14T14:31:07.951296,15.34390083,.00010625,53.1599,307.3061,121.0067,239.1040,0,U,68074,999,2176,.73501365E-4,.2107E-4,0
STARLINK-37026,2026-042G,2026-07-14T14:40:13.346112,15.34393043,.0000953,53.1593,307.3374,89.8876,270.2236,0,U,68075,999,2176,.11072152E-3,.3366E-4,0
STARLINK-37023,2026-042H,2026-07-14T14:19:00.903072,15.34396510,.00009024,53.1592,307.2431,96.7211,263.3894,0,U,68076,999,2176,.34324994E-3,.11237E-3,0
STARLINK-37036,2026-042J,2026-07-14T14:51:31.828032,15.34389068,.00006821,53.1595,305.2328,79.9161,280.1918,0,U,68077,999,2179,.1265576E-3,.3901E-4,0
STARLINK-36973,2026-042K,2026-07-14T13:48:42.882048,15.34408624,.00011561,53.1600,307.1001,86.1287,273.9847,0,U,68078,999,2176,.52875221E-3,.17535E-3,0
STARLINK-37063,2026-042L,2026-07-14T14:09:55.167840,15.34390824,.00009925,53.1594,307.1928,104.3264,255.7849,0,U,68079,999,2176,.10508349E-3,.3175E-4,0
STARLINK-37051,2026-042M,2026-07-14T13:05:36.567168,15.34399183,.00009074,53.1593,305.4695,94.3167,265.7939,0,U,68080,999,2178,.13559756E-3,.4208E-4,0
STARLINK-37066,2026-042N,2026-07-14T15:03:40.250016,15.34371571,.00011999,53.1597,305.2869,166.4898,193.6137,0,U,68081,999,2179,.28536157E-3,.9269E-4,0
STARLINK-37054,2026-042P,2026-07-14T13:54:46.623456,15.34390470,.0000978,53.1603,307.1152,80.8608,279.2505,0,U,68082,999,2176,.4056209E-3,.13349E-3,0
STARLINK-37065,2026-042Q,2026-07-14T14:34:09.957216,15.34382979,.0000694,53.1585,307.3123,61.8429,298.2644,0,U,68083,999,2176,.58791243E-3,.19528E-3,0
STARLINK-37037,2026-042R,2026-07-14T13:42:39.614112,15.34389896,.00010695,53.1598,307.0737,71.4320,288.6798,0,U,68084,999,2176,.31914522E-3,.10418E-3,0
STARLINK-37068,2026-042S,2026-07-14T14:45:28.179936,15.34391398,.00013311,53.1585,305.1956,109.0794,251.0353,0,U,68085,999,2179,.29193087E-3,.9497E-4,0
STARLINK-37067,2026-042T,2026-07-14T14:57:35.100288,15.34389789,.00006123,53.1604,305.2388,117.7939,242.3126,0,U,68086,999,2179,.24952473E-3,.8061E-4,0
STARLINK-37062,2026-042U,2026-07-14T15:01:17.678784,15.34385768,.00010773,53.1598,306.6930,67.8928,292.2189,0,U,68087,999,2177,.39783827E-4,.968E-5,0
STARLINK-37059,2026-042V,2026-07-14T12:48:14.845824,15.34388343,.00007506,53.1590,307.5585,76.2821,283.8265,0,U,68088,999,2175,.91097748E-4,.2702E-4,0
STARLINK-37004,2026-042W,2026-07-14T13:15:30.869568,15.34401863,.0000947,53.1592,307.6775,130.8838,229.2247,0,U,68089,999,2175,.65233751E-3,.21729E-3,0
STARLINK-36320,2026-042X,2026-07-14T15:07:20.951040,15.34366178,.00008057,53.1591,306.7321,94.7354,265.3741,0,U,68090,999,2177,.64543202E-4,.1803E-4,0
STARLINK-36324,2026-042Y,2026-07-14T13:21:26.735616,15.34390368,.00011948,53.1607,306.9819,107.2856,252.8277,0,U,68091,999,2176,.16576295E-3,.5227E-4,0
STARLINK-36896,2026-042Z,2026-07-14T14:06:53.616384,15.34405016,.00009331,53.1593,307.1857,87.4630,272.6480,0,U,68092,999,2175,.55690168E-3,.18489E-3,0
