STARLINK-37000          
1 68063U 26041Z   26195.36185628  .00002891  00000+0  96752-4 0  9990
2 68063  53.1565 178.5731 0001021  79.1776 280.9341 15.34373779 20821
STARLINK-36996          
1 68064U 26041AA  26195.43322069  .00009233  00000+0  28415-3 0  9998
2 68064  53.1564 177.5901 0001174  98.7402 261.3734 15.34391575 20846
STARLINK-36836          
1 68065U 26041AB  26195.39599642  .00012811  00000+0  38971-3 0  9991
2 68065  53.1553 180.1895 0000969  96.4398 263.6715 15.34394836 20800
STARLINK-36976          
1 68066U 26041AC  26195.44163677  .00011614  00000+0  35442-3 0  9993
2 68066  53.1569 177.6422 0001102 103.2154 256.8971 15.34392649 20844
STARLINK-36929          
1 68067U 26041AD  26195.47740924  .00008967  00000+0  27613-3 0  9991
2 68067  53.1565 177.8764 0000884  75.8548 284.2553 15.34408021 20842
STARLINK-36990          
1 68068U 26041AE  26195.42326000  .00010249  00000+0  31408-3 0  9995
2 68068  53.1563 179.6510 0000723  93.8378 266.2707 15.34395667 20812
STARLINK-36766          
1 68069U 26042A   26195.61337022  .00009654  00000+0  29656-3 0  9994
2 68069  53.1594 307.3483 0000841  81.9615 278.1483 15.34390357 21768
STARLINK-36823          
1 68070U 26042B   26195.58545064  .00001172  00000+0  45840-4 0  9990
2 68070  53.1587 304.9914 0001027  70.6783 289.4330 15.34385991 21799
STARLINK-36970          
1 68071U 26042C   26195.60074323  .00006827  00000+0  21302-3 0  9997
2 68071  53.1597 307.2702 0000884  84.1815 275.9288 15.34395666 21767
STARLINK-36972          
1 68072U 26042D   26195.63221431  .00009105  00000+0  28034-3 0  9996
2 68072  53.1603 306.7397 0000771  96.9297 263.1793 15.34392135 21779
STARLINK-37074          
1 68073U 26042E   26195.57759926  .00016727  00000+0  50498-3 0  9992
2 68073  53.1605 307.1126 0000818  95.7416 264.3680 15.34406458 21760
STARLINK-37045          
1 68074U 26042F   26195.60495314  .00002107  00000+0  73501-4 0  9993
2 68074  53.1599 307.3061 0001062 121.0067 239.1040 15.34390083 21766
STARLINK-37026          
1 68075U 26042G   26195.61126558  .00003366  00000+0  11072-3 0  9998
2 68075  53.1593 307.3374 0000953  89.8876 270.2236 15.34393043 21767
STARLINK-37023          
1 68076U 26042H   26195.59653823  .00011237  00000+0  34325-3 0  9998
2 68076  53.1592 307.2431 0000902  96.7211 263.3894 15.34396510 21769
STARLINK-37036          
1 68077U 26042J   26195.61911838  .00003901  00000+0  12656-3 0  9997
2 68077  53.1595 305.2328 0000682  79.9161 280.1918 15.34389068 21795
STARLINK-36973          
1 68078U 26042K   26195.57549632  .00017535  00000+0  52875-3 0  9997
2 68078  53.1600 307.1001 0001156  86.1287 273.9847 15.34408624 21766
STARLINK-37063          
1 68079U 26042L   26195.59022185  .00003175  00000+0  10508-3 0  9991
2 68079  53.1594 307.1928 0000992 104.3264 255.7849 15.34390824 21764
STARLINK-37051          
1 68080U 26042M   26195.54556212  .00004208  00000+0  13560-3 0  9990
2 68080  53.1593 305.4695 0000907  94.3167 265.7939 15.34399183 21783
STARLINK-37066          
1 68081U 26042N   26195.62754919  .00009269  00000+0  28536-3 0  9995
2 68081  53.1597 305.2869 0001199 166.4898 193.6137 15.34371571 21796
STARLINK-37054          
1 68082U 26042P   26195.57970629  .00013349  00000+0  40562-3 0  9995
2 68082  53.1603 307.1152 0000978  80.8608 279.2505 15.34390470 21769
STARLINK-37065          
1 68083U 26042Q   26195.60705969  .00019528  00000+0  58791-3 0  9991
2 68083  53.1585 307.3123 0000694  61.8429 298.2644 15.34382979 21764
STARLINK-37037          
1 68084U 26042R   26195.57129183  .00010418  00000+0  31915-3 0  9994
2 68084  53.1598 307.0737 0001069  71.4320 288.6798 15.34389896 21769
STARLINK-37068          
1 68085U 26042S   26195.61490949  .00009497  00000+0  29193-3 0  9991
2 68085  53.1585 305.1956 0001331 109.0794 251.0353 15.34391398 21797
STARLINK-37067          
1 68086U 26042T   26195.62332292  .00008061  00000+0  24952-3 0  9993
2 68086  53.1604 305.2388 0000612 117.7939 242.3126 15.34389789 21790
STARLINK-37062          
1 68087U 26042U   26195.62589906  .00000968  00000+0  39784-4 0  9998
2 68087  53.1598 306.6930 0001077  67.8928 292.2189 15.34385768 21774
STARLINK-37059          
1 68088U 26042V   26195.53350516  .00002702  00000+0  91098-4 0  9996
2 68088  53.1590 307.5585 0000750  76.2821 283.8265 15.34388343 21757
STARLINK-37004          
1 68089U 26042W   26195.55244062  .00021729  00000+0  65234-3 0  9999
2 68089  53.1592 307.6775 0000947 130.8838 229.2247 15.34401863 21752
STARLINK-36320          
1 68090U 26042X   26195.63010360  .00001803  00000+0  64543-4 0  9996
2 68090  53.1591 306.7321 0000805  94.7354 265.3741 15.34366178 21775
STARLINK-36324          
1 68091U 26042Y   26195.55655944  .00005227  00000+0  16576-3 0  9997
2 68091  53.1607 306.9819 0001194 107.2856 252.8277 15.34390368 21769
STARLINK-36896          
1 68092U 26042Z   26195.58812056  .00018489  00000+0  55690-3 0  9994
2 68092  53.1593 307.1857 0000933  87.4630 272.6480 15.34405016 21750
